{
    "links": {
        "self": "http://www.neowsapp.com/rest/v1/neo/3789626?api_key=iIulBulltgU6a56xZRHN4H3l9WmuAYTsLGpBGhQ2"
    },
    "id": "3789626",
    "neo_reference_id": "3789626",
    "name": "(2017 WP13)",
    "designation": "2017 WP13",
    "nasa_jpl_url": "http://ssd.jpl.nasa.gov/sbdb.cgi?sstr=3789626",
    "absolute_magnitude_h": 24.0,
    "estimated_diameter": {
        "kilometers": {
            "estimated_diameter_min": 0.0421264611,
            "estimated_diameter_max": 0.0941976306
        },
        "meters": {
            "estimated_diameter_min": 42.1264610556,
            "estimated_diameter_max": 94.1976305719
        },
        "miles": {
            "estimated_diameter_min": 0.0261761612,
            "estimated_diameter_max": 0.0585316759
        },
        "feet": {
            "estimated_diameter_min": 138.2101784897,
            "estimated_diameter_max": 309.0473542854
        }
    },
    "is_potentially_hazardous_asteroid": false,
    "close_approach_data": [
        {
            "close_approach_date": "2017-11-07",
            "close_approach_date_full": "2017-Nov-07 20:43",
            "epoch_date_close_approach": 1510087380000,
            "relative_velocity": {
                "kilometers_per_second": "9.5855568304",
                "kilometers_per_hour": "34508.0045894377",
                "miles_per_hour": "21441.9320739204"
            },
            "miss_distance": {
                "astronomical": "0.0668167929",
                "lunar": "25.9917324381",
                "kilometers": "9995649.898071123",
                "miles": "6211008.8383545774"
            },
            "orbiting_body": "Earth"
        },
        {
            "close_approach_date": "2090-08-13",
            "close_approach_date_full": "2090-Aug-13 23:54",
            "epoch_date_close_approach": 3806351640000,
            "relative_velocity": {
                "kilometers_per_second": "21.844709244",
                "kilometers_per_hour": "78640.9532782456",
                "miles_per_hour": "48864.4301078076"
            },
            "miss_distance": {
                "astronomical": "0.4702856375",
                "lunar": "182.9411129875",
                "kilometers": "70353729.661592125",
                "miles": "43715780.484036325"
            },
            "orbiting_body": "Earth"
        }
    ],
    "orbital_data": {
        "orbit_id": "5",
        "orbit_determination_date": "2017-12-10 06:27:27",
        "first_observation_date": "2017-11-20",
        "last_observation_date": "2017-12-09",
        "data_arc_in_days": 19,
        "observations_used": 52,
        "orbit_uncertainty": "7",
        "minimum_orbit_intersection": ".0085678",
        "jupiter_tisserand_invariant": "3.298",
        "epoch_osculation": "2459000.5",
        "eccentricity": ".5786073980960696",
        "semi_major_axis": "2.365443264275081",
        "inclination": "3.0607277904795",
        "ascending_node_longitude": "180.7224181120949",
        "orbital_period": "1328.823288017073",
        "perihelion_distance": ".9967802917890027",
        "perihelion_argument": "199.9560795059985",
        "aphelion_distance": "3.734106236761159",
        "perihelion_time": "2459375.500535038627",
        "mean_anomaly": "258.406211095714",
        "mean_motion": ".270916383876149",
        "equinox": "J2000",
        "orbit_class": {
            "orbit_class_type": "APO",
            "orbit_class_description": "Near-Earth asteroid orbits which cross the Earth’s orbit similar to that of 1862 Apollo",
            "orbit_class_range": "a (semi-major axis) > 1.0 AU; q (perihelion) < 1.017 AU"
        }
    },
    "is_sentry_object": false
}